[{"OBJECT_NAME":"KSM1-D","OBJECT_ID":"2020-081C","EPOCH":"2026-03-09T23:16:47.448768","MEAN_MOTION":15.23167768,"ECCENTRICITY":0.00021749,"INCLINATION":36.897,"RA_OF_ASC_NODE":317.8915,"ARG_OF_PERICENTER":144.8142,"MEAN_ANOMALY":215.275,"EPHEMERIS_TYPE":0,"CLASSIFICATION_TYPE":"U","NORAD_CAT_ID":46907,"ELEMENT_SET_NO":999,"REV_AT_EPOCH":29395,"BSTAR":0.00045744664,"MEAN_MOTION_DOT":0.00010982,"MEAN_MOTION_DDOT":0},{"OBJECT_NAME":"STARLINK-4659","OBJECT_ID":"2022-177X","EPOCH":"2026-03-09T22:00:01.999584","MEAN_MOTION":15.19541895,"ECCENTRICITY":0.00015968,"INCLINATION":42.9998,"RA_OF_ASC_NODE":131.1037,"ARG_OF_PERICENTER":257.6821,"MEAN_ANOMALY":10.3594,"EPHEMERIS_TYPE":0,"CLASSIFICATION_TYPE":"U","NORAD_CAT_ID":54841,"ELEMENT_SET_NO":999,"REV_AT_EPOCH":577,"BSTAR":0.049083509,"MEAN_MOTION_DOT":0.01155812,"MEAN_MOTION_DDOT":0}]
